{
  "norad_id": 65692,
  "name": "STARLINK-34825",
  "history": [
    {
      "epoch": "2026-04-12T15:38:10.177152Z",
      "apogee_km": 475.9565432218724,
      "perigee_km": 474.56557755153517,
      "latitude_deg": 1.902303074259409e-06,
      "longitude_deg": 112.49961821421606,
      "height_km": 476.17285480982326,
      "semi_major_axis_km": 6853.398060386703,
      "eccentricity": 0.00010148,
      "inclination_deg": 53.1595,
      "raan_deg": 187.8956,
      "arg_perigee_deg": 91.1068,
      "mean_anomaly_deg": 269.0049,
      "mean_motion_rev_day": 15.30184597
    },
    {
      "epoch": "2026-04-14T11:31:39.539136Z",
      "apogee_km": 475.9032617729872,
      "perigee_km": 474.5209412592121,
      "latitude_deg": 1.9963553174207434e-05,
      "longitude_deg": 163.82883178668067,
      "height_km": 476.0451380978086,
      "semi_major_axis_km": 6853.3491015161,
      "eccentricity": 0.00010085,
      "inclination_deg": 53.1601,
      "raan_deg": 179.3997,
      "arg_perigee_deg": 84.5697,
      "mean_anomaly_deg": 275.5419,
      "mean_motion_rev_day": 15.30200994
    },
    {
      "epoch": "2026-04-15T11:02:27.419712Z",
      "apogee_km": 476.1127525306174,
      "perigee_km": 474.3212857900089,
      "latitude_deg": -3.980885448796904e-05,
      "longitude_deg": 165.61262963611904,
      "height_km": 476.1022474798661,
      "semi_major_axis_km": 6853.354019160313,
      "eccentricity": 0.0001307,
      "inclination_deg": 53.1617,
      "raan_deg": 174.8487,
      "arg_perigee_deg": 89.1694,
      "mean_anomaly_deg": 270.9456,
      "mean_motion_rev_day": 15.30199347
    },
    {
      "epoch": "2026-04-16T13:41:21.789312Z",
      "apogee_km": 475.9427372114242,
      "perigee_km": 474.48160316833946,
      "latitude_deg": -1.572508591244212e-06,
      "longitude_deg": 119.6365079032135,
      "height_km": 475.8881042523494,
      "semi_major_axis_km": 6853.349170189881,
      "eccentricity": 0.0001066,
      "inclination_deg": 53.1606,
      "raan_deg": 169.6935,
      "arg_perigee_deg": 72.2639,
      "mean_anomaly_deg": 287.8478,
      "mean_motion_rev_day": 15.30200971
    },
    {
      "epoch": "2026-04-17T21:02:25.539072Z",
      "apogee_km": 475.467636529791,
      "perigee_km": 474.90826814718093,
      "latitude_deg": 4.111040073505313e-05,
      "longitude_deg": 2.012376001017531,
      "height_km": 476.09633767077946,
      "semi_major_axis_km": 6853.324952338486,
      "eccentricity": 4.081e-05,
      "inclination_deg": 53.1617,
      "raan_deg": 163.6225,
      "arg_perigee_deg": 91.8438,
      "mean_anomaly_deg": 268.261,
      "mean_motion_rev_day": 15.30209082
    },
    {
      "epoch": "2026-04-18T20:33:13.450752Z",
      "apogee_km": 476.01827975809374,
      "perigee_km": 474.3488108732545,
      "latitude_deg": -2.018848260789849e-05,
      "longitude_deg": 3.796941189503131,
      "height_km": 475.98048585904127,
      "semi_major_axis_km": 6853.320545315673,
      "eccentricity": 0.0001218,
      "inclination_deg": 53.1609,
      "raan_deg": 159.0724,
      "arg_perigee_deg": 83.028,
      "mean_anomaly_deg": 277.0859,
      "mean_motion_rev_day": 15.30210558
    },
    {
      "epoch": "2026-04-19T20:04:01.917984Z",
      "apogee_km": 476.5200399389805,
      "perigee_km": 473.950025426725,
      "latitude_deg": 2.3146102145536792e-05,
      "longitude_deg": 5.578562005747005,
      "height_km": 475.8625818578359,
      "semi_major_axis_km": 6853.3720326828525,
      "eccentricity": 0.0001875,
      "inclination_deg": 53.1595,
      "raan_deg": 154.5216,
      "arg_perigee_deg": 77.8856,
      "mean_anomaly_deg": 282.2355,
      "mean_motion_rev_day": 15.30193314
    },
    {
      "epoch": "2026-04-20T08:36:27.619200Z",
      "apogee_km": 476.06000105374915,
      "perigee_km": 474.44410898235674,
      "latitude_deg": 4.224271402640591e-06,
      "longitude_deg": 174.53143960113778,
      "height_km": 476.0181695913442,
      "semi_major_axis_km": 6853.389055018052,
      "eccentricity": 0.00011789,
      "inclination_deg": 53.1593,
      "raan_deg": 152.0966,
      "arg_perigee_deg": 80.595,
      "mean_anomaly_deg": 279.5184,
      "mean_motion_rev_day": 15.30187613
    },
    {
      "epoch": "2026-04-21T19:05:37.669632Z",
      "apogee_km": 476.14886467404995,
      "perigee_km": 474.2422675541575,
      "latitude_deg": -5.281294695275891e-05,
      "longitude_deg": 9.148821968154419,
      "height_km": 475.8715066322754,
      "semi_major_axis_km": 6853.332566114103,
      "eccentricity": 0.0001391,
      "inclination_deg": 53.1575,
      "raan_deg": 145.4222,
      "arg_perigee_deg": 76.548,
      "mean_anomaly_deg": 283.5675,
      "mean_motion_rev_day": 15.30206532
    }
  ]
}